{
  "type": "FeatureCollection",
  "features": [
    {
      "type": "Feature",
      "properties": {
        "norad_id": 30674,
        "name": "FENGYUN 1C DEB",
        "group": "fengyun-1c-debris",
        "lat": 78.17321005152161,
        "lon": 29.395006473590886,
        "alt_km": 586.3448077367675,
        "timestamp": "2025-12-22T11:33:20.717286+00:00",
        "meta_object_name": "FENGYUN 1C DEB",
        "meta_object_id": "1999-025AQG",
        "meta_epoch": "2025-12-21T09:27:05.744736",
        "meta_mean_motion": 14.96867149,
        "meta_eccentricity": 0.00253206,
        "meta_inclination": 98.9378,
        "meta_ra_of_asc_node": 159.426,
        "meta_arg_of_pericenter": 277.5194,
        "meta_mean_anomaly": 82.3148,
        "meta_ephemeris_type": 0,
        "meta_classification_type": "U",
        "meta_norad_cat_id": 30674,
        "meta_element_set_no": 999,
        "meta_rev_at_epoch": 97481,
        "meta_bstar": 0.0059053483,
        "meta_mean_motion_dot": 0.00068723,
        "meta_mean_motion_ddot": 0,
        "tle_line1": "1 30674U 99025AQG 25355.39381649  .00068723  00000+0  59053-2 0  9997",
        "tle_line2": "2 30674  98.9378 159.4260 0025320 277.5194  82.3148 14.96867149974810"
      },
      "geometry": {
        "type": "Point",
        "coordinates": [
          29.395006473590886,
          78.17321005152161
        ]
      }
    },
    {
      "type": "Feature",
      "properties": {
        "norad_id": 30675,
        "name": "FENGYUN 1C DEB",
        "group": "fengyun-1c-debris",
        "lat": -81.01421921040615,
        "lon": 152.64308320518654,
        "alt_km": 832.4273920689047,
        "timestamp": "2025-12-22T11:33:20.717313+00:00",
        "meta_object_name": "FENGYUN 1C DEB",
        "meta_object_id": "1999-025AQH",
        "meta_epoch": "2025-12-22T03:41:48.615360",
        "meta_mean_motion": 14.274716,
        "meta_eccentricity": 0.0053753,
        "meta_inclination": 98.7543,
        "meta_ra_of_asc_node": 75.294,
        "meta_arg_of_pericenter": 142.5271,
        "meta_mean_anomaly": 247.2127,
        "meta_ephemeris_type": 0,
        "meta_classification_type": "U",
        "meta_norad_cat_id": 30675,
        "meta_element_set_no": 999,
        "meta_rev_at_epoch": 97026,
        "meta_bstar": 0.0014932,
        "meta_mean_motion_dot": 3.68e-05,
        "meta_mean_motion_ddot": 0,
        "tle_line1": "1 30675U 99025AQH 25356.15403490  .00003680  00000+0  14932-2 0  9990",
        "tle_line2": "2 30675  98.7543  75.2940 0053753 142.5271 247.2127 14.27471600970262"
      },
      "geometry": {
        "type": "Point",
        "coordinates": [
          152.64308320518654,
          -81.01421921040615
        ]
      }
    },
    {
      "type": "Feature",
      "properties": {
        "norad_id": 30676,
        "name": "FENGYUN 1C DEB",
        "group": "fengyun-1c-debris",
        "lat": 24.583580667963993,
        "lon": 4.921789824634135,
        "alt_km": 1213.3830143889536,
        "timestamp": "2025-12-22T11:33:20.717328+00:00",
        "meta_object_name": "FENGYUN 1C DEB",
        "meta_object_id": "1999-025AQJ",
        "meta_epoch": "2025-12-21T19:06:12.811968",
        "meta_mean_motion": 13.73934846,
        "meta_eccentricity": 0.0472025,
        "meta_inclination": 98.2658,
        "meta_ra_of_asc_node": 180.513,
        "meta_arg_of_pericenter": 23.7653,
        "meta_mean_anomaly": 338.4542,
        "meta_ephemeris_type": 0,
        "meta_classification_type": "U",
        "meta_norad_cat_id": 30676,
        "meta_element_set_no": 999,
        "meta_rev_at_epoch": 94048,
        "meta_bstar": 0.00053944,
        "meta_mean_motion_dot": 1.101e-05,
        "meta_mean_motion_ddot": 0,
        "tle_line1": "1 30676U 99025AQJ 25355.79598162  .00001101  00000+0  53944-3 0  9994",
        "tle_line2": "2 30676  98.2658 180.5130 0472025  23.7653 338.4542 13.73934846940488"
      },
      "geometry": {
        "type": "Point",
        "coordinates": [
          4.921789824634135,
          24.583580667963993
        ]
      }
    },
    {
      "type": "Feature",
      "properties": {
        "norad_id": 30677,
        "name": "FENGYUN 1C DEB",
        "group": "fengyun-1c-debris",
        "lat": -66.24318896847225,
        "lon": 60.45743231168127,
        "alt_km": 793.2460560833606,
        "timestamp": "2025-12-22T11:33:20.717339+00:00",
        "meta_object_name": "FENGYUN 1C DEB",
        "meta_object_id": "1999-025AQK",
        "meta_epoch": "2025-12-22T02:12:25.024320",
        "meta_mean_motion": 14.38205817,
        "meta_eccentricity": 0.0066605,
        "meta_inclination": 98.2529,
        "meta_ra_of_asc_node": 40.8297,
        "meta_arg_of_pericenter": 176.241,
        "meta_mean_anomaly": 259.8263,
        "meta_ephemeris_type": 0,
        "meta_classification_type": "U",
        "meta_norad_cat_id": 30677,
        "meta_element_set_no": 999,
        "meta_rev_at_epoch": 98114,
        "meta_bstar": 0.0010423,
        "meta_mean_motion_dot": 3.207e-05,
        "meta_mean_motion_ddot": 0,
        "tle_line1": "1 30677U 99025AQK 25356.09195630  .00003207  00000+0  10423-2 0  9995",
        "tle_line2": "2 30677  98.2529  40.8297 0066605 176.2410 259.8263 14.38205817981141"
      },
      "geometry": {
        "type": "Point",
        "coordinates": [
          60.45743231168127,
          -66.24318896847225
        ]
      }
    },
    {
      "type": "Feature",
      "properties": {
        "norad_id": 30678,
        "name": "FENGYUN 1C DEB",
        "group": "fengyun-1c-debris",
        "lat": 11.672747474593233,
        "lon": -44.3300568764245,
        "alt_km": 862.4977997300157,
        "timestamp": "2025-12-22T11:33:20.717349+00:00",
        "meta_object_name": "FENGYUN 1C DEB",
        "meta_object_id": "1999-025AQL",
        "meta_epoch": "2025-12-21T20:35:06.919008",
        "meta_mean_motion": 14.24271486,
        "meta_eccentricity": 0.0071101,
        "meta_inclination": 99.0802,
        "meta_ra_of_asc_node": 316.919,
        "meta_arg_of_pericenter": 203.8982,
        "meta_mean_anomaly": 211.3666,
        "meta_ephemeris_type": 0,
        "meta_classification_type": "U",
        "meta_norad_cat_id": 30678,
        "meta_element_set_no": 999,
        "meta_rev_at_epoch": 96005,
        "meta_bstar": 0.0021681,
        "meta_mean_motion_dot": 5.093e-05,
        "meta_mean_motion_ddot": 0,
        "tle_line1": "1 30678U 99025AQL 25355.85771897  .00005093  00000+0  21681-2 0  9997",
        "tle_line2": "2 30678  99.0802 316.9190 0071101 203.8982 211.3666 14.24271486960059"
      },
      "geometry": {
        "type": "Point",
        "coordinates": [
          -44.3300568764245,
          11.672747474593233
        ]
      }
    },
    {
      "type": "Feature",
      "properties": {
        "norad_id": 30679,
        "name": "FENGYUN 1C DEB",
        "group": "fengyun-1c-debris",
        "lat": 13.739495534648091,
        "lon": 45.82931452172011,
        "alt_km": 867.2503456110362,
        "timestamp": "2025-12-22T11:33:20.717361+00:00",
        "meta_object_name": "FENGYUN 1C DEB",
        "meta_object_id": "1999-025AQM",
        "meta_epoch": "2025-12-20T19:46:15.149280",
        "meta_mean_motion": 13.79725977,
        "meta_eccentricity": 0.01712479,
        "meta_inclination": 99.3807,
        "meta_ra_of_asc_node": 46.5028,
        "meta_arg_of_pericenter": 57.4795,
        "meta_mean_anomaly": 8.3202,
        "meta_ephemeris_type": 0,
        "meta_classification_type": "U",
        "meta_norad_cat_id": 30679,
        "meta_element_set_no": 999,
        "meta_rev_at_epoch": 94631,
        "meta_bstar": 0.00049435234,
        "meta_mean_motion_dot": 5.27e-06,
        "meta_mean_motion_ddot": 0,
        "tle_line1": "1 30679U 99025AQM 25354.82378645  .00000527  00000+0  49435-3 0  9993",
        "tle_line2": "2 30679  99.3807  46.5028 0171247  57.4795   8.3202 13.79725977946312"
      },
      "geometry": {
        "type": "Point",
        "coordinates": [
          45.82931452172011,
          13.739495534648091
        ]
      }
    },
    {
      "type": "Feature",
      "properties": {
        "norad_id": 30680,
        "name": "FENGYUN 1C DEB",
        "group": "fengyun-1c-debris",
        "lat": 47.318548238021954,
        "lon": -130.4993995886111,
        "alt_km": 799.8875262294396,
        "timestamp": "2025-12-22T11:33:20.717371+00:00",
        "meta_object_name": "FENGYUN 1C DEB",
        "meta_object_id": "1999-025AQN",
        "meta_epoch": "2025-12-22T02:03:46.868832",
        "meta_mean_motion": 13.56187034,
        "meta_eccentricity": 0.0337147,
        "meta_inclination": 99.6296,
        "meta_ra_of_asc_node": 38.5049,
        "meta_arg_of_pericenter": 144.6702,
        "meta_mean_anomaly": 217.7291,
        "meta_ephemeris_type": 0,
        "meta_classification_type": "U",
        "meta_norad_cat_id": 30680,
        "meta_element_set_no": 999,
        "meta_rev_at_epoch": 92380,
        "meta_bstar": 0.0047103,
        "meta_mean_motion_dot": 4.73e-05,
        "meta_mean_motion_ddot": 0,
        "tle_line1": "1 30680U 99025AQN 25356.08595913  .00004730  00000+0  47103-2 0  9993",
        "tle_line2": "2 30680  99.6296  38.5049 0337147 144.6702 217.7291 13.56187034923807"
      },
      "geometry": {
        "type": "Point",
        "coordinates": [
          -130.4993995886111,
          47.318548238021954
        ]
      }
    }
  ]
}